ORBCOMM FM103           
1 40091U 14040F   25123.78481524  .00001213  00000+0  29746-3 0  9992
2 40091  47.0052 227.4892 0000873  78.7140 281.3843 14.58106807557627
ORBCOMM FM114           
1 41179U 15081A   25124.15025127  .00001327  00000+0  32162-3 0  9993
2 41179  47.0010 134.8342 0001582 175.0036 185.0865 14.58140755498092
ORBCOMM FM119           
1 41180U 15081B   25124.20477328  .00001136  00000+0  28103-3 0  9993
2 41180  47.0018  43.8740 0001390 240.6541 119.4206 14.58078216499307
ORBCOMM FM105           
1 41181U 15081C   25123.83728841  .00000579  00000+0  20841-3 0  9992
2 41181  47.0028  46.2525 0001001 128.6305 231.4665 14.45186233494336
ORBCOMM FM110           
1 41182U 15081D   25124.06007151  .00001172  00000+0  28913-3 0  9991
2 41182  47.0004 134.6546 0002797 309.4059  50.6578 14.58028237498087
ORBCOMM FM118           
1 41183U 15081E   25123.76977403  .00000763  00000+0  20127-3 0  9998
2 41183  47.0027 136.4768 0003253 300.4717  59.5847 14.57974570497961
ORBCOMM FM112           
1 41184U 15081F   25123.83880256  .00001413  00000+0  34052-3 0  9991
2 41184  47.0005  44.7623 0000697 186.1909 173.8968 14.58096123499191
ORBCOMM FM113           
1 41185U 15081G   25124.50081775  .00001354  00000+0  32778-3 0  9993
2 41185  47.0011  41.9537 0001019 215.8212 144.2605 14.58093833499340
